NORAD_CAT_ID,OBJECT_NAME,OBJECT_TYPE,EPOCH,MEAN_MOTION,ECCENTRICITY,INCLINATION,RA_OF_ASC_NODE,ARG_OF_PERICENTER,MEAN_ANOMALY,BSTAR,MEAN_MOTION_DOT,MEAN_MOTION_DDOT,TLE_LINE0,TLE_LINE1,TLE_LINE2,SEMIMAJOR_AXIS,PERIOD,APOGEE,PERIGEE,DECAYED
53602.0,STARLINK-4648,PAYLOAD,2022-12-31 14:20:58,15.088417800000002,0.0002234,53.2181,65.1436,37.7885,322.3264,0.00021195,3.087e-05,0.0,0 STARLINK-4648,1 53602U 22104Q   22365.59790245  .00003087  00000-0  21195-3 0  9993,2 53602  53.2181  65.1436 0002234  37.7885 322.3264 15.08841780 19253,6917.875,95.437,541.285,538.194,0.0
53602.0,STARLINK-4648,PAYLOAD,2023-01-01 04:39:28,15.0882379,0.000206,53.2175,62.4667,30.3877,329.7234,-7.632300000000001e-05,-1.502e-05,0.0,0 STARLINK-4648,1 53602U 22104Q   23001.19408338 -.00001502  00000-0 -76323-4 0  9992,2 53602  53.2175  62.4667 0002060  30.3877 329.7234 15.08823790 19348,6917.93,95.439,541.22,538.37,0.0
53602.0,STARLINK-4648,PAYLOAD,2023-01-01 14:11:48,15.08820202,0.0002145999999999,53.2175,60.6833,37.1339,322.9802,-0.00021542,-3.713e-05,0.0,0 STARLINK-4648,1 53602U 22104Q   23001.59153547 -.00003713  00000-0 -21542-3 0  9993,2 53602  53.2175  60.6833 0002146  37.1339 322.9802 15.08820202 19404,6917.941,95.439,541.29,538.321,0.0
53602.0,STARLINK-4648,PAYLOAD,2023-01-01 20:33:21,15.088259400000002,0.0002143,53.2179,59.4942,38.033,322.0813,-0.00022835,-3.919e-05,0.0,0 STARLINK-4648,1 53602U 22104Q   23001.85649356 -.00003919  00000-0 -22835-3 0  9994,2 53602  53.2179  59.4942 0002143  38.0330 322.0813 15.08825940 20132,6917.9230000000025,95.438,541.271,538.306,0.0
53602.0,STARLINK-4648,PAYLOAD,2023-01-02 06:05:39,15.08832645,0.0002106999999999,53.2178,57.7094,32.6075,327.5047,-0.00011941,-2.188e-05,0.0,0 STARLINK-4648,1 53602U 22104Q   23002.25392629 -.00002188  00000-0 -11941-3 0  9990,2 53602  53.2178  57.7094 0002107  32.6075 327.5047 15.08832645 19504,6917.903,95.438,541.225,538.31,0.0
53602.0,STARLINK-4648,PAYLOAD,2023-01-02 12:27:11,15.08840775,0.0002115,53.2177,56.5198,36.4814,323.6322,-4.134800000000001e-05,-9.46e-06,0.0,0 STARLINK-4648,1 53602U 22104Q   23002.51887956 -.00000946  00000-0 -41348-4 0  9996,2 53602  53.2177  56.5198 0002115  36.4814 323.6322 15.08840775 20235,6917.878000000002,95.438,541.206,538.28,0.0
53602.0,STARLINK-4648,PAYLOAD,2023-01-02 20:24:06,15.08844004,0.0002210999999999,53.2176,55.0335,35.4135,324.7004,-9.1502e-07,-3.03e-06,0.0,0 STARLINK-4648,1 53602U 22104Q   23002.85007654 -.00000303  00000-0 -91502-6 0  9998,2 53602  53.2176  55.0335 0002211  35.4135 324.7004 15.08844004 19598,6917.868,95.437,541.263,538.2040000000002,0.0
53602.0,STARLINK-4648,PAYLOAD,2023-01-03 12:17:58,15.08825516,0.0002293,53.2173,52.0597,33.6629,326.4509,0.00019955,2.888e-05,0.0,0 STARLINK-4648,1 53602U 22104Q   23003.51248593  .00002888  00000-0  19955-3 0  9998,2 53602  53.2173  52.0597 0002293  33.6629 326.4509 15.08825516 19697,6917.925,95.438,541.376,538.203,0.0
53602.0,STARLINK-4648,PAYLOAD,2023-01-04 12:08:45,15.08845479,0.0002309,53.2179,47.6,35.4213,324.6932,9.4847e-05,1.222e-05,0.0,0 STARLINK-4648,1 53602U 22104Q   23004.50608149  .00001222  00000-0  94847-4 0  9990,2 53602  53.2179  47.6000 0002309  35.4213 324.6932 15.08845479 19846,6917.864000000001,95.437,541.326,538.131,0.0
53602.0,STARLINK-4648,PAYLOAD,2023-01-04 20:05:40,15.08852908,0.0002318,53.2182,46.1133,36.1414,323.9734,0.00010673,1.411e-05,0.0,0 STARLINK-4648,1 53602U 22104Q   23004.83727432  .00001411  00000-0  10673-3 0  9997,2 53602  53.2182  46.1133 0002318  36.1414 323.9734 15.08852908 20582,6917.840999999999,95.437,541.309,538.102,0.0
53602.0,STARLINK-4648,PAYLOAD,2023-01-05 08:48:45,15.08853971,0.000236,53.2183,43.7341,37.62300000000001,322.4927,0.00012589,1.717e-05,0.0,0 STARLINK-4648,1 53602U 22104Q   23005.36718866  .00001717  00000-0  12589-3 0  9994,2 53602  53.2183  43.7341 0002360  37.6230 322.4927 15.08853971 19976,6917.8380000000025,95.437,541.335,538.07,0.0
53602.0,STARLINK-4648,PAYLOAD,2023-01-05 11:59:31,15.08857734,0.0002362,53.2184,43.1396,34.3049,325.8095,0.00013322,1.834e-05,0.0,0 STARLINK-4648,1 53602U 22104Q   23005.49966475  .00001834  00000-0  13322-3 0  9995,2 53602  53.2184  43.1396 0002362  34.3049 325.8095 15.08857734 20689,6917.826,95.436,541.325,538.057,0.0
53602.0,STARLINK-4648,PAYLOAD,2023-01-06 08:39:34,15.08820381,0.0002131,53.2184,39.2749,11.8225,348.2817,-0.00025276,-4.307e-05,0.0,0 STARLINK-4648,1 53602U 22104Q   23006.36081610 -.00004307  00000-0 -25276-3 0  9992,2 53602  53.2184  39.2749 0002131  11.8225 348.2817 15.08820381 20125,6917.94,95.439,541.28,538.331,0.0
53602.0,STARLINK-4648,PAYLOAD,2023-01-06 13:25:44,15.08818753,0.0002341,53.2179,38.3806,33.9685,326.1457,-0.00030447,-5.128e-05,0.0,0 STARLINK-4648,1 53602U 22104Q   23006.55954110 -.00005128  00000-0 -30447-3 0  9995,2 53602  53.2179  38.3806 0002341  33.9685 326.1457 15.08818753 20845,6917.945,95.439,541.43,538.191,0.0
53602.0,STARLINK-4648,PAYLOAD,2023-01-07 02:08:48,15.08828109,0.0002244,53.2177,36.00199999999999,32.4039,327.7091,-0.0001914,-3.332e-05,0.0,0 STARLINK-4648,1 53602U 22104Q   23007.08945518 -.00003332  00000-0 -19140-3 0  9998,2 53602  53.2177  36.0020 0002244  32.4039 327.7091 15.08828109 20235,6917.917,95.438,541.3340000000002,538.229,0.0
53602.0,STARLINK-4648,PAYLOAD,2023-01-07 08:30:20,15.08836754,0.0002372,53.2176,34.8126,34.6788,325.4359,-0.00010203,-1.912e-05,0.0,0 STARLINK-4648,1 53602U 22104Q   23007.35440847 -.00001912  00000-0 -10203-3 0  9996,2 53602  53.2176  34.8126 0002372  34.6788 325.4359 15.08836754 20275,6917.89,95.438,541.396,538.114,0.0
53602.0,STARLINK-4648,PAYLOAD,2023-01-07 13:16:30,15.08839383,0.0002362,53.2173,33.9201,34.3478,325.7667,-8.481399999999999e-05,-1.638e-05,0.0,0 STARLINK-4648,1 53602U 22104Q   23007.55312689 -.00001638  00000-0 -84814-4 0  9995,2 53602  53.2173  33.9201 0002362  34.3478 325.7667 15.08839383 20993,6917.882,95.438,541.381,538.113,0.0
53602.0,STARLINK-4648,PAYLOAD,2023-01-08 08:21:07,15.088356900000004,0.0002469,53.2155,30.3521,38.6423,321.4745,8.610100000000001e-05,1.082e-05,0.0,0 STARLINK-4648,1 53602U 22104Q   23008.34800756  .00001082  00000-0  86101-4 0  9992,2 53602  53.2155  30.3521 0002469  38.6423 321.4745 15.08835690 21116,6917.894,95.438,541.467,538.0509999999998,0.0
53602.0,STARLINK-4648,PAYLOAD,2023-01-08 17:53:26,15.08828369,0.000239,53.217,28.5677,33.5584,326.5559,0.00026179,3.879e-05,0.0,0 STARLINK-4648,1 53602U 22104Q   23008.74545094  .00003879  00000-0  26179-3 0  9991,2 53602  53.2170  28.5677 0002390  33.5584 326.5559 15.08828369 20482,6917.916,95.438,541.434,538.128,0.0
53602.0,STARLINK-4648,PAYLOAD,2023-01-09 08:11:55,15.08839286,0.0002338,53.2179,25.8904,25.1929,334.9176,0.00010322,1.355e-05,0.0,0 STARLINK-4648,1 53602U 22104Q   23009.34161163  .00001355  00000-0  10322-3 0  9999,2 53602  53.2179  25.8904 0002338  25.1929 334.9176 15.08839286 21261,6917.883000000002,95.438,541.365,538.13,0.0
53602.0,STARLINK-4648,PAYLOAD,2023-01-09 17:44:14,15.08829306,0.0002241,53.2175,24.1069,30.2626,329.8496,0.00020648,2.999e-05,0.0,0 STARLINK-4648,1 53602U 22104Q   23009.73905614  .00002999  00000-0  20648-3 0  9996,2 53602  53.2175  24.1069 0002241  30.2626 329.8496 15.08829306 21322,6917.913000000001,95.438,541.328,538.2280000000002,0.0
53602.0,STARLINK-4648,PAYLOAD,2023-01-10 04:51:56,15.08838006,0.0002378,53.2177,22.0264,30.8966,329.2166,5.7516e-05,6.27e-06,0.0,0 STARLINK-4648,1 53602U 22104Q   23010.20273533  .00000627  00000-0  57516-4 0  9999,2 53602  53.2177  22.0264 0002378  30.8966 329.2166 15.08838006 20708,6917.886,95.438,541.3969999999998,538.106,0.0
53602.0,STARLINK-4648,PAYLOAD,2023-01-10 09:38:05,15.08841437,0.000238,53.217,21.1333,33.0155,327.0985,-6.087100000000001e-06,-3.85e-06,0.0,0 STARLINK-4648,1 53602U 22104Q   23010.40145490 -.00000385  00000-0 -60871-5 0  9993,2 53602  53.2170  21.1333 0002380  33.0155 327.0985 15.08841437 21423,6917.876,95.437,541.387,538.095,0.0
53602.0,STARLINK-4648,PAYLOAD,2023-01-11 07:53:28,15.08847598,0.000241,53.2176,16.9709,30.2127,329.9003,9.0183e-05,1.148e-05,0.0,0 STARLINK-4648,1 53602U 22104Q   23011.32880683  .00001148  00000-0  90183-4 0  9999,2 53602  53.2176  16.9709 0002410  30.2127 329.9003 15.08847598 20874,6917.857,95.437,541.389,538.055,0.0
53602.0,STARLINK-4648,PAYLOAD,2023-01-11 17:25:47,15.08847419,0.0002349,53.2179,15.1889,31.6616,328.4517,6.175399999999999e-05,6.95e-06,0.0,0 STARLINK-4648,1 53602U 22104Q   23011.72624652  .00000695  00000-0  61754-4 0  9993,2 53602  53.2179  15.1889 0002349  31.6616 328.4517 15.08847419 21626,6917.858,95.437,541.3480000000002,538.0980000000002,0.0
53602.0,STARLINK-4648,PAYLOAD,2023-01-12 17:16:35,15.08835548,0.0002305,53.2174,10.7252,38.3085,321.8071,-5.3694000000000015e-06,-3.74e-06,0.0,0 STARLINK-4648,1 53602U 22104Q   23012.71985090 -.00000374  00000-0 -53694-5 0  9990,2 53602  53.2174  10.7252 0002305  38.3085 321.8071 15.08835548 21084,6917.894,95.438,541.354,538.164,0.0
53602.0,STARLINK-4648,PAYLOAD,2023-01-13 09:10:28,15.088255599999998,0.0001976,53.2173,7.7502,48.6589,311.4573,-0.00020304,-3.517e-05,0.0,0 STARLINK-4648,1 53602U 22104Q   23013.38226858 -.00003517  00000-0 -20304-3 0  9996,2 53602  53.2173   7.7502 0001976  48.6589 311.4573 15.08825560 21189,6917.925,95.438,541.1569999999999,538.423,0.0
53602.0,STARLINK-4648,PAYLOAD,2023-01-13 17:07:24,15.08820232,0.0002053,53.2178,6.2626,50.184,309.9333,-0.00014176,-2.542e-05,0.0,0 STARLINK-4648,1 53602U 22104Q   23013.71347397 -.00002542  00000-0 -14176-3 0  9992,2 53602  53.2178   6.2626 0002053  50.1840 309.9333 15.08820232 21929,6917.941,95.439,541.226,538.386,0.0
53602.0,STARLINK-4648,PAYLOAD,2023-01-14 05:50:27,15.08840339,0.0001903,53.217,3.8842,50.5476,309.5684,-1.6615e-05,-5.53e-06,0.0,0 STARLINK-4648,1 53602U 22104Q   23014.24337755 -.00000553  00000-0 -16615-4 0  9999,2 53602  53.2170   3.8842 0001903  50.5476 309.5684 15.08840339 21314,6917.879,95.438,541.061,538.428,0.0
